*******************************************************************************
Ephemeris / WWW_USER Mon Jul 15 19:13:43 2024 Pasadena, USA      / Horizons    
*******************************************************************************
Target body name: (2018 VS1)                      {source: JPL#4}
Center body name: Earth (399)                     {source: DE441}
Center-site name: Gemini South Obs., Cerro Pachon
*******************************************************************************
Start time      : A.D. 2018-Oct-31 23:13:00.0000 UT      
Stop  time      : A.D. 2018-Nov-01 09:39:00.0000 UT      
Step-size       : 1 minutes
*******************************************************************************
Target pole/equ : undefined
Target radii    : undefined                                                    
Center geodetic : 289.2634, -30.2406227, 2.71233  {E-lon(deg),Lat(deg),Alt(km)}
Center cylindric: 289.2634,5517.21435,-3194.81213 {E-lon(deg),Dxy(km),Dz(km)}
Center pole/equ : ITRF93                          {East-longitude positive}
Center radii    : 6378.137, 6378.137, 6356.752 km {Equator_a, b, pole_c}       
Target primary  : Sun
Vis. interferer : MOON (R_eq= 1737.400) km        {source: DE441}
Rel. light bend : Sun                             {source: DE441}
Rel. lght bnd GM: 1.3271E+11 km^3/s^2                                          
Small-body perts: Yes                             {source: SB441-N16}
Atmos refraction: NO (AIRLESS)
RA format       : HMS
Time format     : CAL 
Calendar mode   : Mixed Julian/Gregorian
RTS-only print  : NO       
EOP file        : eop.240715.p241008                                           
EOP coverage    : DATA-BASED 1962-JAN-20 TO 2024-JUL-15. PREDICTS-> 2024-OCT-07
Units conversion: 1 au= 149597870.700 km, c= 299792.458 km/s, 1 day= 86400.0 s 
Table cut-offs 1: Elevation (-90.0deg=NO ),Airmass (>38.000=NO), Daylight (YES)
Table cut-offs 2: Solar elongation (  0.0,180.0=NO ),Local Hour Angle( 0.0=NO )
Table cut-offs 3: RA/DEC angular rate (     0.0=NO )                           
*******************************************************************************
Initial IAU76/J2000 heliocentric ecliptic osculating elements (au, days, deg.):
  EPOCH=  2458427.5 ! 2018-Nov-05.00 (TDB)         Residual RMS= .21634        
   EC= .3907275528854954   QR= .7806320880190512   TP= 2458486.1030618688      
   OM= 55.95483604725189   W=  67.17004921097404   IN= 3.601110299269385       
  Equivalent ICRF heliocentric cartesian coordinates (au, au/d):
   X= 7.595935200506908E-01  Y= 6.354459268576240E-01  Z= 2.586666727482118E-01
  VX=-1.643099138746886E-02 VY= 7.530892270769961E-03 VZ= 4.533522122669557E-03
Asteroid physical parameters (km, seconds, rotational period in hours):        
   GM= n.a.                RAD= n.a.               ROTPER= n.a.                
   H= 26.6                 G= .150                 B-V= n.a.                   
                           ALBEDO= n.a.            STYP= n.a.                  
*******************************************************************************
 Date__(UT)__HR:MN     R.A._________(ICRF)_________DEC
******************************************************
$$SOE
 2018-Nov-01 07:25  m  02 49 02.330542 -04 33 20.78446
 2018-Nov-01 07:26  m  02 49 02.310745 -04 33 23.33177
 2018-Nov-01 07:27  m  02 49 02.291051 -04 33 25.87927
 2018-Nov-01 07:28  m  02 49 02.271459 -04 33 28.42695
 2018-Nov-01 07:29  m  02 49 02.251970 -04 33 30.97483
 2018-Nov-01 07:30  m  02 49 02.232585 -04 33 33.52290
 2018-Nov-01 07:31  m  02 49 02.213304 -04 33 36.07117
 2018-Nov-01 07:32  m  02 49 02.194128 -04 33 38.61962
 2018-Nov-01 07:33  m  02 49 02.175057 -04 33 41.16826
 2018-Nov-01 07:34  m  02 49 02.156093 -04 33 43.71710
 2018-Nov-01 07:35  m  02 49 02.137235 -04 33 46.26613
 2018-Nov-01 07:36  m  02 49 02.118484 -04 33 48.81536
 2018-Nov-01 07:37  m  02 49 02.099841 -04 33 51.36478
 2018-Nov-01 07:38  m  02 49 02.081306 -04 33 53.91439
 2018-Nov-01 07:39  m  02 49 02.062880 -04 33 56.46420
 2018-Nov-01 07:40  m  02 49 02.044564 -04 33 59.01421
 2018-Nov-01 07:41  m  02 49 02.026357 -04 34 01.56441
 2018-Nov-01 07:42  m  02 49 02.008261 -04 34 04.11481
 2018-Nov-01 07:43  m  02 49 01.990277 -04 34 06.66541
 2018-Nov-01 07:44  m  02 49 01.972404 -04 34 09.21621
 2018-Nov-01 07:45  m  02 49 01.954644 -04 34 11.76720
 2018-Nov-01 07:46  m  02 49 01.936996 -04 34 14.31839
 2018-Nov-01 07:47  m  02 49 01.919462 -04 34 16.86979
 2018-Nov-01 07:48  m  02 49 01.902042 -04 34 19.42138
 2018-Nov-01 07:49  m  02 49 01.884736 -04 34 21.97318
 2018-Nov-01 07:50  m  02 49 01.867546 -04 34 24.52517
 2018-Nov-01 07:51  m  02 49 01.850471 -04 34 27.07737
 2018-Nov-01 07:52  m  02 49 01.833512 -04 34 29.62977
 2018-Nov-01 07:53  m  02 49 01.816670 -04 34 32.18238
 2018-Nov-01 07:54  m  02 49 01.799946 -04 34 34.73518
 2018-Nov-01 07:55  m  02 49 01.783339 -04 34 37.28820
 2018-Nov-01 07:56  m  02 49 01.766851 -04 34 39.84142
 2018-Nov-01 07:57  m  02 49 01.750481 -04 34 42.39484
 2018-Nov-01 07:58  m  02 49 01.734231 -04 34 44.94847
 2018-Nov-01 07:59  m  02 49 01.718101 -04 34 47.50231
 2018-Nov-01 08:00  m  02 49 01.702092 -04 34 50.05635
 2018-Nov-01 08:01  m  02 49 01.686203 -04 34 52.61060
 2018-Nov-01 08:02  m  02 49 01.670436 -04 34 55.16506
 2018-Nov-01 08:03  m  02 49 01.654791 -04 34 57.71973
 2018-Nov-01 08:04  m  02 49 01.639269 -04 35 00.27461
 2018-Nov-01 08:05  m  02 49 01.623870 -04 35 02.82970
 2018-Nov-01 08:06  m  02 49 01.608594 -04 35 05.38500
 2018-Nov-01 08:07  m  02 49 01.593443 -04 35 07.94052
 2018-Nov-01 08:08  m  02 49 01.578416 -04 35 10.49624
 2018-Nov-01 08:09  m  02 49 01.563515 -04 35 13.05218
 2018-Nov-01 08:10  m  02 49 01.548739 -04 35 15.60833
 2018-Nov-01 08:11  m  02 49 01.534090 -04 35 18.16470
 2018-Nov-01 08:12  m  02 49 01.519567 -04 35 20.72128
 2018-Nov-01 08:13  m  02 49 01.505171 -04 35 23.27808
 2018-Nov-01 08:14  m  02 49 01.490903 -04 35 25.83509
 2018-Nov-01 08:15  m  02 49 01.476764 -04 35 28.39232
 2018-Nov-01 08:16  m  02 49 01.462753 -04 35 30.94977
 2018-Nov-01 08:17  m  02 49 01.448871 -04 35 33.50744
 2018-Nov-01 08:18  m  02 49 01.435119 -04 35 36.06532
 2018-Nov-01 08:19  m  02 49 01.421497 -04 35 38.62343
 2018-Nov-01 08:20  m  02 49 01.408005 -04 35 41.18175
 2018-Nov-01 08:21  m  02 49 01.394645 -04 35 43.74030
 2018-Nov-01 08:22 Am  02 49 01.381416 -04 35 46.29907
 2018-Nov-01 08:23 Am  02 49 01.368320 -04 35 48.85806
 2018-Nov-01 08:24 Am  02 49 01.355356 -04 35 51.41727
 2018-Nov-01 08:25 Am  02 49 01.342525 -04 35 53.97670
 2018-Nov-01 08:26 Am  02 49 01.329828 -04 35 56.53636
 2018-Nov-01 08:27 Am  02 49 01.317264 -04 35 59.09625
 2018-Nov-01 08:28 Am  02 49 01.304835 -04 36 01.65636
 2018-Nov-01 08:29 Am  02 49 01.292541 -04 36 04.21670
 2018-Nov-01 08:30 Am  02 49 01.280382 -04 36 06.77726
 2018-Nov-01 08:31 Am  02 49 01.268359 -04 36 09.33805
 2018-Nov-01 08:32 Am  02 49 01.256473 -04 36 11.89907
 2018-Nov-01 08:33 Am  02 49 01.244723 -04 36 14.46032
 2018-Nov-01 08:34 Am  02 49 01.233110 -04 36 17.02180
 2018-Nov-01 08:35 Am  02 49 01.221635 -04 36 19.58351
 2018-Nov-01 08:36 Am  02 49 01.210298 -04 36 22.14545
 2018-Nov-01 08:37 Am  02 49 01.199099 -04 36 24.70762
 2018-Nov-01 08:38 Am  02 49 01.188040 -04 36 27.27003
 2018-Nov-01 08:39 Am  02 49 01.177120 -04 36 29.83267
 2018-Nov-01 08:40 Am  02 49 01.166339 -04 36 32.39554
 2018-Nov-01 08:41 Am  02 49 01.155699 -04 36 34.95865
 2018-Nov-01 08:42 Am  02 49 01.145200 -04 36 37.52199
 2018-Nov-01 08:43 Am  02 49 01.134841 -04 36 40.08557
 2018-Nov-01 08:44 Am  02 49 01.124625 -04 36 42.64939
 2018-Nov-01 08:45 Am  02 49 01.114550 -04 36 45.21345
 2018-Nov-01 08:46 Am  02 49 01.104617 -04 36 47.77774
 2018-Nov-01 08:47 Am  02 49 01.094828 -04 36 50.34227
 2018-Nov-01 08:48 Am  02 49 01.085181 -04 36 52.90704
 2018-Nov-01 08:49 Am  02 49 01.075678 -04 36 55.47206
 2018-Nov-01 08:50 Am  02 49 01.066320 -04 36 58.03731
 2018-Nov-01 08:51 Am  02 49 01.057105 -04 37 00.60281
 2018-Nov-01 08:52 Am  02 49 01.048036 -04 37 03.16855
 2018-Nov-01 08:53 Nm  02 49 01.039111 -04 37 05.73453
 2018-Nov-01 08:54 Nm  02 49 01.030332 -04 37 08.30076
 2018-Nov-01 08:55 Nm  02 49 01.021700 -04 37 10.86724
 2018-Nov-01 08:56 Nm  02 49 01.013214 -04 37 13.43396
 2018-Nov-01 08:57 Nm  02 49 01.004874 -04 37 16.00092
 2018-Nov-01 08:58 Nm  02 49 00.996682 -04 37 18.56814
 2018-Nov-01 08:59 Nm  02 49 00.988637 -04 37 21.13560
 2018-Nov-01 09:00 Nm  02 49 00.980740 -04 37 23.70331
 2018-Nov-01 09:01 Nm  02 49 00.972992 -04 37 26.27127
 2018-Nov-01 09:02 Nm  02 49 00.965392 -04 37 28.83949
 2018-Nov-01 09:03 Nm  02 49 00.957942 -04 37 31.40795
 2018-Nov-01 09:04 Nm  02 49 00.950640 -04 37 33.97667
 2018-Nov-01 09:05 Nm  02 49 00.943489 -04 37 36.54564
 2018-Nov-01 09:06 Nm  02 49 00.936488 -04 37 39.11486
 2018-Nov-01 09:07 Nm  02 49 00.929637 -04 37 41.68434
 2018-Nov-01 09:08 Nm  02 49 00.922937 -04 37 44.25407
 2018-Nov-01 09:09 Nm  02 49 00.916389 -04 37 46.82406
 2018-Nov-01 09:10 Nm  02 49 00.909992 -04 37 49.39431
 2018-Nov-01 09:11 Nm  02 49 00.903747 -04 37 51.96482
 2018-Nov-01 09:12 Nm  02 49 00.897655 -04 37 54.53558
 2018-Nov-01 09:13 Nm  02 49 00.891715 -04 37 57.10660
 2018-Nov-01 09:14 Nm  02 49 00.885928 -04 37 59.67789
 2018-Nov-01 09:15 Nm  02 49 00.880294 -04 38 02.24943
 2018-Nov-01 09:16 Nm  02 49 00.874814 -04 38 04.82124
 2018-Nov-01 09:17 Nm  02 49 00.869488 -04 38 07.39331
 2018-Nov-01 09:18 Nm  02 49 00.864317 -04 38 09.96564
 2018-Nov-01 09:19 Nm  02 49 00.859300 -04 38 12.53824
 2018-Nov-01 09:20 Nm  02 49 00.854438 -04 38 15.11110
 2018-Nov-01 09:21 Nm  02 49 00.849731 -04 38 17.68423
 2018-Nov-01 09:22 Nm  02 49 00.845180 -04 38 20.25763
 2018-Nov-01 09:23 Cm  02 49 00.840785 -04 38 22.83129
 2018-Nov-01 09:24 Cm  02 49 00.836546 -04 38 25.40523
 2018-Nov-01 09:25 Cm  02 49 00.832464 -04 38 27.97943
 2018-Nov-01 09:26 Cm  02 49 00.828538 -04 38 30.55390
 2018-Nov-01 09:27 Cm  02 49 00.824770 -04 38 33.12864
